[
    {
        "Altitude(m)": 559277.7434961251,
        "Argument of Periapsis(deg)": 0.013245982221427002,
        "Eccentricity": 0.0,
        "Inclination(deg)": 53.0,
        "Latitude(deg)": 50.41481868818041,
        "Longitude(deg)": 133.41359491252447,
        "Mean Anomaly(deg)": 105.63778573515518,
        "RAAN(deg)": 119.98028673705602,
        "Satellite Name": "Starlink Shell 1 533",
        "Satellite Number": 533,
        "Semi-Major Axis(m)": 6931778.249405717,
        "Time(s)": 380
    },
    {
        "Altitude(m)": 559228.5056511828,
        "Argument of Periapsis(deg)": 0.013594560700938237,
        "Eccentricity": 0.0,
        "Inclination(deg)": 53.0,
        "Latitude(deg)": 50.19953383150363,
        "Longitude(deg)": 134.29174718459137,
        "Mean Anomaly(deg)": 106.2646169387119,
        "RAAN(deg)": 119.97976796697857,
        "Satellite Name": "Starlink Shell 1 533",
        "Satellite Number": 533,
        "Semi-Major Axis(m)": 6931778.249405717,
        "Time(s)": 390
    },
    {
        "Altitude(m)": 559177.6051917815,
        "Argument of Periapsis(deg)": 0.013943139180449475,
        "Eccentricity": 0.0,
        "Inclination(deg)": 53.0,
        "Latitude(deg)": 49.977033267838415,
        "Longitude(deg)": 135.16153608457364,
        "Mean Anomaly(deg)": 106.89144814226862,
        "RAAN(deg)": 119.97924919690107,
        "Satellite Name": "Starlink Shell 1 533",
        "Satellite Number": 533,
        "Semi-Major Axis(m)": 6931778.249405717,
        "Time(s)": 400
    },
    {
        "Altitude(m)": 559125.0730996164,
        "Argument of Periapsis(deg)": 0.014291717659960712,
        "Eccentricity": 0.0,
        "Inclination(deg)": 53.0,
        "Latitude(deg)": 49.7474384467189,
        "Longitude(deg)": 136.02283560759355,
        "Mean Anomaly(deg)": 107.5182793458253,
        "RAAN(deg)": 119.97873042682359,
        "Satellite Name": "Starlink Shell 1 533",
        "Satellite Number": 533,
        "Semi-Major Axis(m)": 6931778.249405717,
        "Time(s)": 410
    },
    {
        "Altitude(m)": 559070.9413832212,
        "Argument of Periapsis(deg)": 0.014640296139471948,
        "Eccentricity": 0.0,
        "Inclination(deg)": 53.0,
        "Latitude(deg)": 49.51087192225961,
        "Longitude(deg)": 136.87553442972128,
        "Mean Anomaly(deg)": 108.14511054938204,
        "RAAN(deg)": 119.97821165674614,
        "Satellite Name": "Starlink Shell 1 533",
        "Satellite Number": 533,
        "Semi-Major Axis(m)": 6931778.249405717,
        "Time(s)": 420
    },
    {
        "Altitude(m)": 559015.2430622362,
        "Argument of Periapsis(deg)": 0.014988874618983185,
        "Eccentricity": 0.0,
        "Inclination(deg)": 53.0,
        "Latitude(deg)": 49.267457112636784,
        "Longitude(deg)": 137.7195360225826,
        "Mean Anomaly(deg)": 108.77194175293876,
        "RAAN(deg)": 119.97769288666865,
        "Satellite Name": "Starlink Shell 1 533",
        "Satellite Number": 533,
        "Semi-Major Axis(m)": 6931778.249405717,
        "Time(s)": 430
    },
    {
        "Altitude(m)": 558958.0121511568,
        "Argument of Periapsis(deg)": 0.015337453098494424,
        "Eccentricity": 0.0,
        "Inclination(deg)": 53.0,
        "Latitude(deg)": 49.01731806933499,
        "Longitude(deg)": 138.55475873050423,
        "Mean Anomaly(deg)": 109.39877295649548,
        "RAAN(deg)": 119.97717411659119,
        "Satellite Name": "Starlink Shell 1 533",
        "Satellite Number": 533,
        "Semi-Major Axis(m)": 6931778.249405717,
        "Time(s)": 440
    },
    {
        "Altitude(m)": 558899.2836425849,
        "Argument of Periapsis(deg)": 0.01568603157800566,
        "Eccentricity": 0.0,
        "Inclination(deg)": 53.0,
        "Latitude(deg)": 48.7605792566592,
        "Longitude(deg)": 139.38113430242745,
        "Mean Anomaly(deg)": 110.0256041600522,
        "RAAN(deg)": 119.97665534651371,
        "Satellite Name": "Starlink Shell 1 533",
        "Satellite Number": 533,
        "Semi-Major Axis(m)": 6931778.249405717,
        "Time(s)": 450
    },
    {
        "Altitude(m)": 558839.0934899881,
        "Argument of Periapsis(deg)": 0.0160346100575169,
        "Eccentricity": 0.0,
        "Inclination(deg)": 53.0,
        "Latitude(deg)": 48.49736534189936,
        "Longitude(deg)": 140.19860790930767,
        "Mean Anomaly(deg)": 110.65243536360889,
        "RAAN(deg)": 119.97613657643623,
        "Satellite Name": "Starlink Shell 1 533",
        "Satellite Number": 533,
        "Semi-Major Axis(m)": 6931778.249405717,
        "Time(s)": 460
    },
    {
        "Altitude(m)": 558777.4785899732,
        "Argument of Periapsis(deg)": 0.016383188537028134,
        "Eccentricity": 0.0,
        "Inclination(deg)": 53.0,
        "Latitude(deg)": 48.22780099643782,
        "Longitude(deg)": 141.00713813890985,
        "Mean Anomaly(deg)": 111.27926656716562,
        "RAAN(deg)": 119.97561780635876,
        "Satellite Name": "Starlink Shell 1 533",
        "Satellite Number": 533,
        "Semi-Major Axis(m)": 6931778.249405717,
        "Time(s)": 470
    },
    {
        "Altitude(m)": 558714.4767640625,
        "Argument of Periapsis(deg)": 0.01673176701653937,
        "Eccentricity": 0.0,
        "Inclination(deg)": 53.0,
        "Latitude(deg)": 47.95201070799423,
        "Longitude(deg)": 141.8066954596933,
        "Mean Anomaly(deg)": 111.90609777072234,
        "RAAN(deg)": 119.9750990362813,
        "Satellite Name": "Starlink Shell 1 533",
        "Satellite Number": 533,
        "Semi-Major Axis(m)": 6931778.249405717,
        "Time(s)": 480
    },
    {
        "Altitude(m)": 558650.1267400328,
        "Argument of Periapsis(deg)": 0.017080345496050607,
        "Eccentricity": 0.0,
        "Inclination(deg)": 53.0,
        "Latitude(deg)": 47.670118604107735,
        "Longitude(deg)": 142.5972621838677,
        "Mean Anomaly(deg)": 112.53292897427909,
        "RAAN(deg)": 119.97458026620382,
        "Satellite Name": "Starlink Shell 1 533",
        "Satellite Number": 533,
        "Semi-Major Axis(m)": 6931778.249405717,
        "Time(s)": 490
    },
    {
        "Altitude(m)": 558584.4681327625,
        "Argument of Periapsis(deg)": 0.017428923975561842,
        "Eccentricity": 0.0,
        "Inclination(deg)": 53.0,
        "Latitude(deg)": 47.38224828688017,
        "Longitude(deg)": 143.37883242080323,
        "Mean Anomaly(deg)": 113.15976017783576,
        "RAAN(deg)": 119.97406149612635,
        "Satellite Name": "Starlink Shell 1 533",
        "Satellite Number": 533,
        "Semi-Major Axis(m)": 6931778.249405717,
        "Time(s)": 500
    },
    {
        "Altitude(m)": 558517.5414246279,
        "Argument of Periapsis(deg)": 0.01777750245507308,
        "Eccentricity": 0.0,
        "Inclination(deg)": 53.0,
        "Latitude(deg)": 47.088522678929564,
        "Longitude(deg)": 144.15141051170625,
        "Mean Anomaly(deg)": 113.78659138139247,
        "RAAN(deg)": 119.97354272604888,
        "Satellite Name": "Starlink Shell 1 533",
        "Satellite Number": 533,
        "Semi-Major Axis(m)": 6931778.249405717,
        "Time(s)": 510
    },
    {
        "Altitude(m)": 558449.3879454571,
        "Argument of Periapsis(deg)": 0.018126080934584315,
        "Eccentricity": 0.0,
        "Inclination(deg)": 53.0,
        "Latitude(deg)": 46.7890638804309,
        "Longitude(deg)": 144.9150109747987,
        "Mean Anomaly(deg)": 114.41342258494917,
        "RAAN(deg)": 119.9730239559714,
        "Satellite Name": "Starlink Shell 1 533",
        "Satellite Number": 533,
        "Semi-Major Axis(m)": 6931778.249405717,
        "Time(s)": 520
    },
    {
        "Altitude(m)": 558380.049852057,
        "Argument of Periapsis(deg)": 0.018474659414095554,
        "Eccentricity": 0.0,
        "Inclination(deg)": 53.0,
        "Latitude(deg)": 46.48399303706604,
        "Longitude(deg)": 145.6696584513238,
        "Mean Anomaly(deg)": 115.04025378850595,
        "RAAN(deg)": 119.97250518589392,
        "Satellite Name": "Starlink Shell 1 533",
        "Satellite Number": 533,
        "Semi-Major Axis(m)": 6931778.249405717,
        "Time(s)": 530
    },
    {
        "Altitude(m)": 558309.5701072828,
        "Argument of Periapsis(deg)": 0.018823237893606792,
        "Eccentricity": 0.0,
        "Inclination(deg)": 53.0,
        "Latitude(deg)": 46.17343021865441,
        "Longitude(deg)": 146.41538614239946,
        "Mean Anomaly(deg)": 115.66708499206261,
        "RAAN(deg)": 119.97198641581647,
        "Satellite Name": "Starlink Shell 1 533",
        "Satellite Number": 533,
        "Semi-Major Axis(m)": 6931778.249405717,
        "Time(s)": 540
    },
    {
        "Altitude(m)": 558237.9924587131,
        "Argument of Periapsis(deg)": 0.019171816373118027,
        "Eccentricity": 0.0,
        "Inclination(deg)": 53.0,
        "Latitude(deg)": 45.85749430818248,
        "Longitude(deg)": 147.15223576507367,
        "Mean Anomaly(deg)": 116.29391619561936,
        "RAAN(deg)": 119.97146764573898,
        "Satellite Name": "Starlink Shell 1 533",
        "Satellite Number": 533,
        "Semi-Major Axis(m)": 6931778.249405717,
        "Time(s)": 550
    },
    {
        "Altitude(m)": 558165.3614169086,
        "Argument of Periapsis(deg)": 0.019520394852629266,
        "Eccentricity": 0.0,
        "Inclination(deg)": 53.0,
        "Latitude(deg)": 45.53630290092055,
        "Longitude(deg)": 147.88025751702025,
        "Mean Anomaly(deg)": 116.9207473991761,
        "RAAN(deg)": 119.97094887566152,
        "Satellite Name": "Starlink Shell 1 533",
        "Satellite Number": 533,
        "Semi-Major Axis(m)": 6931778.249405717,
        "Time(s)": 560
    }
]